{
  "type": "FeatureCollection",
  "features": [
    {
      "type": "Feature",
      "properties": {
        "name": "Monte I Cameroni",
        "ele": 1471,
        "poleHeight": 500
      },
      "geometry": {
        "type": "Polygon",
        "coordinates": [
          [
            [
              12.591687,
              46.165923
            ],
            [
              12.591816999999999,
              46.165923
            ],
            [
              12.591816999999999,
              46.166013
            ],
            [
              12.591687,
              46.166013
            ],
            [
              12.591687,
              46.165923
            ]
          ]
        ]
      }
    },
    {
      "type": "Feature",
      "properties": {
        "name": "Monte Fortel",
        "ele": 1436,
        "poleHeight": 488
      },
      "geometry": {
        "type": "Polygon",
        "coordinates": [
          [
            [
              12.594541000000001,
              46.160584
            ],
            [
              12.594671,
              46.160584
            ],
            [
              12.594671,
              46.160674
            ],
            [
              12.594541000000001,
              46.160674
            ],
            [
              12.594541000000001,
              46.160584
            ]
          ]
        ]
      }
    },
    {
      "type": "Feature",
      "properties": {
        "name": "Monte Fara",
        "ele": 1345,
        "poleHeight": 456
      },
      "geometry": {
        "type": "Polygon",
        "coordinates": [
          [
            [
              12.636173000000001,
              46.178648
            ],
            [
              12.636303,
              46.178648
            ],
            [
              12.636303,
              46.178738
            ],
            [
              12.636173000000001,
              46.178738
            ],
            [
              12.636173000000001,
              46.178648
            ]
          ]
        ]
      }
    },
    {
      "type": "Feature",
      "properties": {
        "name": "Monte Spia",
        "ele": 548,
        "poleHeight": 178
      },
      "geometry": {
        "type": "Polygon",
        "coordinates": [
          [
            [
              12.652242000000001,
              46.160983
            ],
            [
              12.652372,
              46.160983
            ],
            [
              12.652372,
              46.161073
            ],
            [
              12.652242000000001,
              46.161073
            ],
            [
              12.652242000000001,
              46.160983
            ]
          ]
        ]
      }
    },
    {
      "type": "Feature",
      "properties": {
        "name": "Monte Gloriassis",
        "ele": 468,
        "poleHeight": 150
      },
      "geometry": {
        "type": "Polygon",
        "coordinates": [
          [
            [
              12.643402,
              46.157642
            ],
            [
              12.643531999999999,
              46.157642
            ],
            [
              12.643531999999999,
              46.157732
            ],
            [
              12.643402,
              46.157732
            ],
            [
              12.643402,
              46.157642
            ]
          ]
        ]
      }
    }
  ]
}
