{"type":"FeatureCollection","metadata":{"title":"Aree a pericolosità da frana (PAI)","source":"ISPRA - mosaicatura nazionale aree a pericolosità da frana (PAI)"},"features":[{"type":"Feature","id":2,"properties":{"class":"p3","label":"Elevata P3"},"geometry":{"type":"Polygon","coordinates":[[[12.65093329,46.15015698],[12.65102693,46.15010796],[12.65104693,46.15007022],[12.65110557,46.14998232],[12.65112954,46.14985123],[12.65117198,46.14971206],[12.6511568,46.14963957],[12.65089828,46.14968942],[12.65074533,46.14969906],[12.65056684,46.14973355],[12.65046145,46.14976954],[12.65033385,46.14975846],[12.65020023,46.14974302],[12.65003787,46.14968451],[12.64988963,46.14964076],[12.64987515,46.14963445],[12.64978567,46.1495859],[12.64972671,46.14953806],[12.64968028,46.14948194],[12.64963921,46.14944284],[12.64958531,46.14941626],[12.64948757,46.14941857],[12.64932583,46.14949157],[12.64916523,46.14953497],[12.6490189,46.14953196],[12.64888937,46.14956323],[12.64872858,46.14961086],[12.64861868,46.14961283],[12.64854064,46.14958152],[12.64846223,46.14955866],[12.64828019,46.14953377],[12.64811543,46.1495346],[12.64799343,46.14953209],[12.64785408,46.14950798],[12.64776996,46.14947655],[12.64766011,46.14947429],[12.64750162,46.14947103],[12.64738516,46.14948132],[12.64730585,46.14947968],[12.64724599,46.14945307],[12.64714362,46.14942117],[12.64705913,46.14939828],[12.64693069,46.1494041],[12.64684403,46.14943201],[12.64669053,46.14945432],[12.64656708,46.14948571],[12.64646291,46.14949634],[12.6463727,46.14946478],[12.64638131,46.14940556],[12.6464269,46.14933855],[12.64641605,46.14930439],[12.64635512,46.14930314],[12.64628737,46.14931875],[12.64622558,46.1493344],[12.64614464,46.14937098],[12.64610177,46.14937433],[12.64606583,46.14936081],[12.64600585,46.1493341],[12.64595297,46.14928639],[12.64576294,46.14916358],[12.64576655,46.14907879],[12.64583736,46.14899115],[12.64592529,46.14893356],[12.64604266,46.14890204],[12.64602736,46.14882955],[12.64589391,46.14880988],[12.64568279,46.14875036],[12.64554508,46.14868803],[12.64539628,46.14860009],[12.64517782,46.14857012],[12.64503221,46.14855019],[12.6449579,46.14857413],[12.64494356,46.14862478],[12.64488936,46.14875092],[12.64486484,46.14889469],[12.64494601,46.14913829],[12.64497473,46.14918127],[12.64502242,46.14920772],[12.64509312,46.14926858],[12.64526083,46.14934422],[12.64544624,46.14943291],[12.6456193,46.14952558],[12.64581759,46.14959762],[12.64601566,46.14967802],[12.64621998,46.14975441],[12.64632988,46.14975244],[12.64666397,46.14978903],[12.64691852,46.14983243],[12.64709538,46.14983607],[12.64721739,46.14983859],[12.6474355,46.1498771],[12.64762381,46.1498979],[12.64797681,46.14992218],[12.64812922,46.14992531],[12.6482696,46.1499282],[12.64841557,46.14993967],[12.6485065,46.14995432],[12.64865873,46.14996168],[12.64889023,46.14997491],[12.64908425,46.15000437],[12.64926684,46.15001659],[12.64950356,46.15004693],[12.64968452,46.15009737],[12.64987723,46.15016073],[12.65002265,46.15018496],[12.65010733,46.15020362],[12.6502601,46.15019831],[12.65049051,46.15023698],[12.65059968,46.150252],[12.65070332,46.15025413],[12.65083303,46.15021855],[12.65093329,46.15015698]]]}},{"type":"Feature","id":3,"properties":{"class":"p3","label":"Elevata P3"},"geometry":{"type":"Polygon","coordinates":[[[12.65873176,46.15773956],[12.6586842,46.15774939],[12.6586364,46.1577647],[12.65859684,46.15779665],[12.65856177,46.15784192],[12.65856201,46.15790637],[12.65854492,46.15796128],[12.65854672,46.15798895],[12.65860459,46.15808121],[12.65863214,46.1581248],[12.6586659,46.15819911],[12.65869409,46.15826107],[12.65871113,46.1582778],[12.65872303,46.15830873],[12.6587401,46.15835822],[12.65874022,46.15838892],[12.65874732,46.15842902],[12.65873117,46.15853201],[12.65870437,46.15857448],[12.65864375,46.158651],[12.65858862,46.15870198],[12.65857636,46.15871307],[12.65853689,46.1587398],[12.65851212,46.15877107],[12.65849784,46.15879327],[12.65849559,46.15881267],[12.65850348,46.15883434],[12.65850667,46.15886303],[12.65852766,46.1588901],[12.65855595,46.15891624],[12.6585861,46.15893531],[12.65866666,46.15898709],[12.65876674,46.15905214],[12.65885381,46.15913375],[12.65888124,46.15920155],[12.65890211,46.15927758],[12.6589283,46.15937468],[12.65894898,46.15945494],[12.65899924,46.15955254],[12.65900406,46.15974722],[12.65906465,46.15961661],[12.65910825,46.15945586],[12.65911438,46.15931136],[12.65911496,46.15915405],[12.65910898,46.15900497],[12.65910007,46.15894332],[12.65909959,46.15885385],[12.65908838,46.15871502],[12.65904142,46.15860677],[12.65900848,46.15852555],[12.65896129,46.1583219],[12.65890581,46.15816119],[12.65888478,46.15809821],[12.65881504,46.15797455],[12.6587863,46.15789494],[12.65873966,46.15777924],[12.65873176,46.15773956]]]}},{"type":"Feature","id":4,"properties":{"class":"p3","label":"Elevata P3"},"geometry":{"type":"Polygon","coordinates":[[[12.64791233,46.16640728],[12.64813648,46.16641189],[12.64825326,46.1663891],[12.64839156,46.16637187],[12.64843513,46.16636773],[12.64850855,46.16634404],[12.64867678,46.16630223],[12.64883051,46.16626013],[12.64891821,46.16624186],[12.64922517,46.16617267],[12.64942313,46.16611131],[12.64956953,46.16607409],[12.64968034,46.16602102],[12.65011148,46.16591928],[12.65020578,46.16591627],[12.65027131,46.16590753],[12.65036634,46.16588429],[12.6504976,46.16586188],[12.65064315,46.16584471],[12.65076597,46.16584724],[12.65102721,46.16583254],[12.6510562,46.16583313],[12.6511719,46.16583551],[12.65125862,46.1658373],[12.6513235,46.16584367],[12.65138092,46.16585484],[12.65142342,46.16587587],[12.65144474,46.16588639],[12.65147296,46.165902],[12.65148767,46.16589727],[12.65150194,46.1659026],[12.65152348,46.16590808],[12.65155191,46.16591874],[12.65156597,46.16592912],[12.65162987,46.16594951],[12.65163105,46.1659219],[12.65172371,46.16584776],[12.65174645,46.1657791],[12.65175847,46.16573102],[12.65178971,46.1656971],[12.65183133,46.16565647],[12.65186198,46.1656364],[12.65188237,46.16562296],[12.65191373,46.16558904],[12.65192474,46.16556164],[12.65207572,46.16540768],[12.65221807,46.16530729],[12.65237267,46.16516565],[12.65248229,46.16510086],[12.6525468,46.16505511],[12.6526088,46.16500743],[12.65272819,46.16489576],[12.65283762,46.16477128],[12.65264499,46.16480151],[12.65242648,46.16484084],[12.65225309,46.16484464],[12.65213773,46.16483117],[12.65198899,46.16481158],[12.65173161,46.16477203],[12.65139372,46.16472238],[12.65117071,46.16469213],[12.65093864,46.16466298],[12.65063841,46.1646568],[12.65044892,46.1646624],[12.65018674,46.16467266],[12.65004431,46.16467913],[12.64989832,46.16468576],[12.64982265,46.16469978],[12.64972051,46.16471126],[12.64963434,46.16471492],[12.64956541,46.16472709],[12.64949297,46.16472967],[12.64940267,46.16473868],[12.64927142,46.16474044],[12.64910858,46.16475989],[12.64893336,46.16478082],[12.64869771,46.16480897],[12.64850584,46.16483189],[12.6482985,46.16485665],[12.64790557,46.16490357],[12.64755952,46.16495334],[12.64696572,46.165027],[12.64681247,46.16504226],[12.64652574,46.16504245],[12.64579482,46.16503956],[12.64564142,46.16503521],[12.64539848,46.16499548],[12.64499581,46.16498656],[12.64481028,46.16498245],[12.64458152,46.16497738],[12.64435049,46.16500259],[12.64390078,46.16499411],[12.64366449,46.16498884],[12.64320362,46.16497856],[12.64307276,46.16497565],[12.64283061,46.16497026],[12.64256305,46.16496431],[12.64232676,46.16495905],[12.64213739,46.16495429],[12.64196169,46.16494964],[12.64175464,46.16494416],[12.64152032,46.16493795],[12.64131138,46.16492971],[12.64056678,46.16484093],[12.64030304,46.16482889],[12.6401772,46.16482389],[12.64016947,46.16484385],[12.64016093,46.16487383],[12.64014257,46.16496399],[12.6401395,46.1652054],[12.64011453,46.1652804],[12.64010428,46.16535056],[12.64010234,46.16539579],[12.64015144,46.16543209],[12.64022952,46.16546889],[12.64047456,46.16549403],[12.64058301,46.16549627],[12.64072705,46.16551436],[12.64082037,46.16553141],[12.6409205,46.16555859],[12.64103577,46.16557105],[12.64111471,46.16558779],[12.64125854,46.16561083],[12.64139521,46.16562878],[12.64157428,46.1656727],[12.64168912,46.16569523],[12.64176765,46.16572197],[12.6419544,46.16575606],[12.64207606,46.16578872],[12.64220591,46.16579644],[12.64232131,46.16580891],[12.64247972,46.1658272],[12.64261459,46.16589038],[12.64277235,46.16592387],[12.64299629,46.16593353],[12.64331453,46.1659401],[12.64351609,46.16596433],[12.64366781,46.1659725],[12.64398536,46.16598931],[12.64406473,46.16599598],[12.64419407,46.16601872],[12.64425895,46.1660251],[12.64435994,46.16603222],[12.64444665,46.16603401],[12.64451835,46.16605061],[12.64461073,46.16609274],[12.64470211,46.16615502],[12.64476507,46.16620654],[12.64485773,46.16623869],[12.6449435,46.16626556],[12.64506559,46.16628824],[12.64515166,46.16630514],[12.64528825,46.16632802],[12.64547522,46.16635708],[12.64561893,46.16638011],[12.64579951,46.16638887],[12.64606694,46.16639942],[12.64613182,46.1664058],[12.64626146,46.16641855],[12.6463989,46.16642138],[12.64652867,46.16643413],[12.64662263,46.16643607],[12.6467669,46.16644903],[12.64684649,46.16645067],[12.64692724,46.16642218],[12.64727477,46.16641926],[12.64737611,46.16642135],[12.6475132,46.16642921],[12.64756381,46.16643025],[12.64787588,46.16641157],[12.64791233,46.16640728]]]}},{"type":"Feature","id":9,"properties":{"class":"p2","label":"Media P2"},"geometry":{"type":"Polygon","coordinates":[[[12.65585223,46.16954729],[12.6554208,46.16964415],[12.6549497,46.16963448],[12.65487912,46.16967756],[12.65485094,46.16973099],[12.65480809,46.1698247],[12.65478505,46.16990981],[12.65478257,46.16996826],[12.65479892,46.17004069],[12.65480348,46.17008587],[12.65479471,46.17013969],[12.65479146,46.17021621],[12.65480629,46.17032461],[12.65482322,46.17038346],[12.65486502,46.1704699],[12.65491791,46.17059717],[12.65499688,46.17072038],[12.65507148,46.17079391],[12.65527201,46.17095571],[12.65534789,46.17100227],[12.65545485,46.17107655],[12.65557699,46.17110156],[12.65571174,46.17113141],[12.65610827,46.17125663],[12.65616576,46.17127581],[12.65622933,46.17130412],[12.65625589,46.17131286],[12.65633167,46.17133781],[12.65643388,46.1713714],[12.65653641,46.17140051],[12.6566376,46.17146117],[12.65676379,46.17154035],[12.65680052,46.1715906],[12.65689409,46.17167811],[12.65693082,46.17172845],[12.65699249,46.17180172],[12.65708587,46.17189372],[12.6571738,46.17195862],[12.65725526,46.17202329],[12.65734846,46.17211979],[12.65751042,46.17227179],[12.65757107,46.17237212],[12.65762376,46.17248415],[12.6576803,46.17253698],[12.65837556,46.17225884],[12.65830975,46.17207335],[12.65824037,46.1719248],[12.65820949,46.17188337],[12.65815259,46.17182001],[12.65808705,46.17172192],[12.65806689,46.17165841],[12.65794879,46.17155103],[12.65782438,46.17135752],[12.65783896,46.17124528],[12.65783093,46.17098834],[12.65779505,46.17056532],[12.65767263,46.17040585],[12.65721093,46.17012358],[12.65706717,46.16983288],[12.65666066,46.16977223],[12.65645791,46.16963299],[12.65585223,46.16954729]]]}},{"type":"Feature","id":10,"properties":{"class":"p2","label":"Media P2"},"geometry":{"type":"Polygon","coordinates":[[[12.65430553,46.17053672],[12.65382696,46.17077543],[12.65427749,46.1711406],[12.65399805,46.171227],[12.65392924,46.17142412],[12.65427035,46.17170498],[12.65439031,46.1718526],[12.65572526,46.17259889],[12.65619528,46.17258902],[12.6566552,46.1733576],[12.65666007,46.17336117],[12.65675215,46.17331302],[12.656776905993018,46.17330479718267],[12.6567881,46.1732981],[12.6572111,46.1731517],[12.657367591667079,46.17310031120591],[12.65722745,46.17292281],[12.65685939,46.1724775],[12.65665033,46.1721043],[12.65629682,46.17174065],[12.655785,46.17150506],[12.65542354,46.17132881],[12.65514098,46.17120421],[12.65495559,46.17111913],[12.65461106,46.17096824],[12.65447204,46.1708528],[12.65430553,46.17053672]]]}},{"type":"Feature","id":15,"properties":{"class":"p4","label":"Molto elevata P4"},"geometry":{"type":"MultiPolygon","coordinates":[[[[12.58540658,46.14823979],[12.58565697,46.14821709],[12.58581501,46.1480974],[12.58580336,46.14799644],[12.58558241,46.14789664],[12.58543,46.14788784],[12.58535866,46.14786401],[12.58540448,46.14775779],[12.58573681,46.14773286],[12.586076,46.1476692],[12.58617525,46.14738068],[12.58620414,46.14730335],[12.58627625,46.14717023],[12.58641796,46.14707746],[12.58665134,46.14710012],[12.5868472,46.14705116],[12.58701184,46.14713258],[12.58719433,46.14727107],[12.58726979,46.14741091],[12.5873448,46.14756136],[12.58742385,46.14761613],[12.587493,46.14771407],[12.58759971,46.14772568],[12.5877172,46.1477188],[12.5877734,46.14765942],[12.58787983,46.1476803],[12.58787332,46.14782929],[12.58772914,46.14821298],[12.58791336,46.14844521],[12.5880307,46.14867602],[12.5882092,46.14873109],[12.58831124,46.14884971],[12.58843488,46.1489362],[12.58863506,46.14895437],[12.58875645,46.1489383],[12.58885837,46.14875406],[12.58895439,46.14855107],[12.5889613,46.14839281],[12.58871023,46.14784696],[12.58868803,46.14759017],[12.58872557,46.14719018],[12.58883734,46.14693163],[12.58884997,46.14679671],[12.58895687,46.14664984],[12.58899301,46.14659003],[12.58907,46.14651713],[12.58910085,46.14642454],[12.58895246,46.146291],[12.58932626,46.14617306],[12.58942588,46.14615419],[12.58960162,46.14604972],[12.58973056,46.14594957],[12.58971902,46.14603591],[12.58981888,46.14606511],[12.58995206,46.14586766],[12.59020618,46.14557539],[12.59045521,46.14539668],[12.59065342,46.14531428],[12.59078293,46.14519794],[12.59082163,46.14520415],[12.59093855,46.14520122],[12.59116052,46.14510852],[12.59133885,46.14494451],[12.59152741,46.1449052],[12.59165008,46.14494568],[12.59168079,46.14495712],[12.59172547,46.14500136],[12.59185674,46.14502572],[12.59199154,46.14496907],[12.59196662,46.14482788],[12.5918556,46.14469557],[12.59182114,46.14459207],[12.59175776,46.14443917],[12.59178707,46.14430451],[12.59173543,46.14423853],[12.59162887,46.1441821],[12.59165089,46.1440365],[12.59168266,46.14384231],[12.5916601,46.14364707],[12.59166222,46.14359843],[12.59159226,46.1434183],[12.59153452,46.1433143],[12.59151653,46.14318945],[12.5915283,46.14309772],[12.59147163,46.14297205],[12.59144305,46.14291186],[12.59141577,46.14282471],[12.5915027,46.14279405],[12.59166901,46.14272727],[12.59187615,46.14261796],[12.59194826,46.14257079],[12.59207694,46.14247612],[12.59217139,46.14245102],[12.59228432,46.14236142],[12.59231232,46.14225374],[12.5923142,46.14221049],[12.59240371,46.14212039],[12.59240419,46.1421096],[12.59243053,46.14203978],[12.59257286,46.14198868],[12.59267354,46.14200161],[12.59269211,46.14211027],[12.59260025,46.14225441],[12.5924852,46.14239265],[12.59246779,46.14243567],[12.59258211,46.14249217],[12.59279607,46.14240469],[12.59297883,46.14249513],[12.59306657,46.14262685],[12.59305256,46.14276722],[12.59297645,46.14290629],[12.59289727,46.14311568],[12.59289256,46.14322385],[12.59282434,46.14336309],[12.59272741,46.14344223],[12.59257402,46.14356887],[12.59240933,46.14377645],[12.59220759,46.14393996],[12.59202103,46.14411468],[12.5918881,46.14430664],[12.59187963,46.14432275],[12.5918655,46.14446853],[12.59199488,46.14453624],[12.5922472,46.14428172],[12.59246918,46.14401045],[12.59262375,46.14385675],[12.59295417,46.14359857],[12.59296121,46.14379357],[12.59290556,46.14399796],[12.59287426,46.14418135],[12.59275239,46.14429786],[12.59268545,46.14440463],[12.5926037,46.14449489],[12.59244396,46.14458899],[12.59237067,46.14466314],[12.59233326,46.14480851],[12.59225808,46.144926],[12.59218903,46.14508142],[12.59211126,46.14525843],[12.59215419,46.14534592],[12.59229403,46.14534887],[12.59238556,46.14521552],[12.5925352,46.14499673],[12.59274059,46.14474672],[12.59290528,46.14453913],[12.59305114,46.14440693],[12.59321595,46.14419935],[12.59332005,46.14413116],[12.5933651,46.14417],[12.59337355,46.14433255],[12.59339542,46.1443655],[12.59347551,46.14449166],[12.59326638,46.14464961],[12.59315579,46.14486374],[12.5930625,46.14504033],[12.59289241,46.14519371],[12.59274607,46.1453367],[12.59268383,46.14551395],[12.59288393,46.1453883],[12.59299767,46.14527711],[12.59322317,46.14510321],[12.59343762,46.14482638],[12.59372487,46.14466467],[12.59380567,46.14477456],[12.59384954,46.14484046],[12.59382259,46.14492107],[12.59384929,46.14502442],[12.59382764,46.14516473],[12.5938147,46.14528343],[12.59373022,46.14543322],[12.59374798,46.14556346],[12.59385489,46.14578757],[12.59389924,46.14566403],[12.59398335,46.14551973],[12.5940083,46.1453038],[12.59406019,46.14500726],[12.59399093,46.14481095],[12.59393648,46.14463124],[12.59373781,46.14454587],[12.59368054,46.14443099],[12.59355753,46.14403879],[12.59343604,46.14397124],[12.59324962,46.14378335],[12.59327504,46.14355664],[12.59329269,46.14350823],[12.59349228,46.14357201],[12.593702,46.14358183],[12.59377011,46.14344799],[12.59390821,46.14331563],[12.59396362,46.14329511],[12.59398643,46.14330639],[12.59391761,46.1434565],[12.59389009,46.1435533],[12.59389172,46.1436941],[12.59389524,46.14379155],[12.59401099,46.14381559],[12.59405944,46.14377332],[12.59407309,46.14363834],[12.59407028,46.14352461],[12.59404489,46.1433942],[12.59406771,46.14322692],[12.5941257,46.14314696],[12.5942152,46.14323551],[12.59415085,46.14346141],[12.59420742,46.14359248],[12.59423412,46.14369582],[12.59427692,46.14378339],[12.59435396,46.14380122],[12.59445066,46.14372747],[12.59442514,46.14359706],[12.59444114,46.14340803],[12.59438435,46.14310371],[12.59447727,46.14311656],[12.59465792,46.14325564],[12.594834,46.14332423],[12.59485282,46.14324894],[12.59495316,46.14308869],[12.59508113,46.1430102],[12.59507126,46.14288012],[12.59506656,46.14280964],[12.59497646,46.14273196],[12.59494824,46.14266648],[12.59483132,46.14266942],[12.59468547,46.14262306],[12.59471148,46.14256402],[12.59487756,46.14250263],[12.59514856,46.14235677],[12.59540202,46.14225392],[12.59550776,46.14214788],[12.59543614,46.1420057],[12.59532194,46.14194911],[12.59517633,46.14189736],[12.5951247,46.14183138],[12.59526279,46.14169901],[12.59535912,46.14163066],[12.59543239,46.14155642],[12.59559235,46.14163557],[12.59560729,46.14183065],[12.59561669,46.14197161],[12.59562962,46.14203137],[12.59559387,46.14213889],[12.59556339,46.14230061],[12.59551094,46.14243478],[12.59547411,46.14256388],[12.59546893,46.14268284],[12.59547692,46.14285617],[12.59542447,46.14299034],[12.59542188,46.14304987],[12.59542823,46.1430824],[12.59540729,46.14320643],[12.59538964,46.1434334],[12.59539223,46.14355244],[12.59539575,46.14364999],[12.59533587,46.1437732],[12.59530082,46.14386444],[12.59535797,46.14397932],[12.59556064,46.14397269],[12.59562382,46.14359521],[12.59561818,46.14336783],[12.59562007,46.14314602],[12.59564502,46.14275144],[12.59572371,46.14255293],[12.59605573,46.14249548],[12.59641948,46.14245273],[12.59675503,46.14232002],[12.59704501,46.14212478],[12.59717845,46.14201581],[12.59757841,46.14206337],[12.59811097,46.14220876],[12.5984859,46.14227811],[12.59874609,46.14239546],[12.59901712,46.14245146],[12.59915664,46.14257185],[12.59930564,46.14265886],[12.59954725,46.14265278],[12.59973489,46.14258958],[12.59992655,46.142437],[12.5999365,46.14220798],[12.60004235,46.14217663],[12.600151,46.14208387],[12.6002566,46.1418736],[12.60019959,46.14170464],[12.59998848,46.14156601],[12.59972718,46.14147106],[12.59960407,46.14134544],[12.59949032,46.14118645],[12.59941435,46.14108423],[12.59927508,46.14095827],[12.5991759,46.14083315],[12.5992521,46.14074529],[12.59942868,46.14075458],[12.59958424,46.1408753],[12.59961232,46.14097094],[12.599624,46.1410718],[12.59963032,46.14111109],[12.59965827,46.14120672],[12.59973971,46.14137061],[12.59980168,46.14142222],[12.60002177,46.14153881],[12.60017393,46.14155317],[12.60041784,46.14149124],[12.60050157,46.14141469],[12.60067208,46.14137913],[12.6008015,46.14135943],[12.60094101,46.14129531],[12.60106667,46.1411805],[12.60116644,46.14110429],[12.60113143,46.1409862],[12.60101476,46.14089419],[12.60074835,46.14073209],[12.60058428,46.14062235],[12.60045035,46.14055806],[12.60031035,46.14044883],[12.6002395,46.14041377],[12.60010605,46.14033834],[12.59986749,46.14027735],[12.59970926,46.14021813],[12.59954872,46.14020918],[12.59950206,46.14017463],[12.59952198,46.14008558],[12.59964836,46.13995405],[12.59979687,46.1398677],[12.5999461,46.13976455],[12.60004344,46.13974427],[12.60018781,46.13975288],[12.60029197,46.13994516],[12.60032393,46.1399515],[12.60034726,46.13996873],[12.60036975,46.14000835],[12.60038361,46.14005895],[12.60041861,46.14017714],[12.60044766,46.14025047],[12.60051585,46.14034695],[12.60054356,46.14044815],[12.60069426,46.14049605],[12.60069571,46.14046251],[12.60061051,46.14020349],[12.60072912,46.14025071],[12.60082112,46.14035336],[12.60093124,46.14041156],[12.60104997,46.14045321],[12.60115837,46.14036602],[12.60098298,46.14014426],[12.60079546,46.14001729],[12.60063844,46.13993011],[12.60058654,46.1398284],[12.60071244,46.13970801],[12.60085486,46.13957672],[12.60100093,46.13954631],[12.6011786,46.13952763],[12.60124872,46.13957941],[12.60126052,46.13968037],[12.60126175,46.13983691],[12.60126126,46.13984815],[12.60124596,46.14001559],[12.60129919,46.14008376],[12.60140542,46.14023143],[12.60149815,46.14031726],[12.60164059,46.14037057],[12.60171726,46.14027146],[12.60164615,46.14005748],[12.60168903,46.1398124],[12.60167091,46.13967216],[12.60161511,46.13947533],[12.60161779,46.13941382],[12.60154085,46.1393339],[12.60149346,46.13931617],[12.60135079,46.13926844],[12.60120641,46.13925983],[12.60109655,46.13919596],[12.60116229,46.13916386],[12.60124092,46.13920466],[12.60142539,46.13921412],[12.60150839,46.13915439],[12.60152455,46.13915473],[12.60153257,46.1391549],[12.60154059,46.13915506],[12.60154886,46.13914966],[12.60154934,46.13913851],[12.60161533,46.13910074],[12.60164765,46.13909575],[12.60173588,46.13910327],[12.60180771,46.13911594],[12.60193591,46.13912421],[12.60208806,46.13913857],[12.60216013,46.13914566],[12.60221421,46.1391972],[12.60221178,46.13925304],[12.60218578,46.13929722],[12.60219041,46.13937562],[12.60228629,46.13938879],[12.60232652,46.13938964],[12.60238279,46.13939082],[12.60240685,46.13939132],[12.60240782,46.13936902],[12.60243455,46.13930802],[12.60250782,46.13928724],[12.60251584,46.13928741],[12.60260384,46.13930041],[12.60265828,46.13934071],[12.60267907,46.13941945],[12.60271456,46.13952639],[12.6028186,46.13953974],[12.60290111,46.13949116],[12.60290838,46.13932355],[12.60284286,46.13916566],[12.60270795,46.13893908],[12.60256964,46.13879083],[12.60241456,46.13865896],[12.60240203,46.13857482],[12.60240201,46.13839031],[12.60227342,46.13820302],[12.60228569,46.13810824],[12.60247867,46.13810671],[12.60274797,46.13820182],[12.60300829,46.13831915],[12.60330409,46.13835884],[12.60350144,46.13844128],[12.60376978,46.13855878],[12.60400153,46.13859155],[12.6041786,46.13858968],[12.6044293,46.13855579],[12.60449818,46.13845103],[12.60427661,46.13818358],[12.60401676,46.1378705],[12.60383423,46.13781636],[12.60392621,46.13773441],[12.60403692,46.13777588],[12.60429285,46.13780924],[12.60452532,46.13782528],[12.6049312,46.13773874],[12.6049082,46.13752577],[12.60464898,46.13738614],[12.6043518,46.13700523],[12.60437258,46.13689938],[12.60447378,46.13678972],[12.60469581,46.13686142],[12.60491781,46.13674872],[12.60502704,46.13663913],[12.60512692,46.13656293],[12.60523276,46.13653157],[12.60537785,46.13652346],[12.60559235,46.13658384],[12.60563647,46.1366799],[12.60573187,46.13670422],[12.60593226,46.13671958],[12.60606982,46.13670014],[12.60602658,46.13657449],[12.60590142,46.13646045],[12.60590413,46.13639786],[12.60590745,46.13632134],[12.60582044,46.13624995],[12.6056259,46.1361205],[12.60555954,46.13603559],[12.60569801,46.13583661],[12.605903404461806,46.13559047694435],[12.6057747,46.1356924],[12.6055753,46.1358266],[12.6054567,46.1360087],[12.6053507,46.1361565],[12.6051268,46.1363441],[12.6048991,46.1364931],[12.6044601,46.1366648],[12.6038711,46.1368524],[12.6029405,46.1372635],[12.6015782,46.1378042],[12.6011725,46.1379726],[12.6006029,46.1383491],[12.599553,46.1390847],[12.599314,46.1392373],[12.5991065,46.1393022],[12.5989432,46.139368],[12.5988185,46.1394384],[12.5987094,46.1395285],[12.5986399,46.1396001],[12.5985867,46.1396797],[12.5985722,46.1397684],[12.5985641,46.1398177],[12.5984996,46.1399009],[12.5983919,46.1399602],[12.5983914,46.1399717],[12.5981952,46.1400292],[12.5979654,46.1400974],[12.5977694,46.1401548],[12.597368,46.1402233],[12.5970722,46.1402824],[12.5967824,46.1403302],[12.5965094,46.1403744],[12.5962809,46.1404119],[12.5960524,46.1404533],[12.5957719,46.1405396],[12.5952127,46.1406779],[12.5948991,46.1407637],[12.5946093,46.1408114],[12.5943741,46.1408756],[12.594178,46.1409331],[12.5938857,46.1410384],[12.5936554,46.1411182],[12.5934147,46.1411823],[12.5931801,46.1412351],[12.5929626,46.1412728],[12.5928023,46.1412694],[12.5926484,46.1412469],[12.5924892,46.1412167],[12.5923352,46.141198],[12.5921572,46.1412212],[12.5920229,46.141253],[12.5918875,46.1413117],[12.5917298,46.1413776],[12.5916268,46.1414562],[12.591359,46.1416314],[12.5912115,46.1417166],[12.5910762,46.1417753],[12.5909747,46.1418194],[12.5908128,46.1418544],[12.5906726,46.1418937],[12.5905438,46.1419333],[12.5904035,46.1419765],[12.5902735,46.1420391],[12.5900944,46.1420854],[12.5899385,46.142109],[12.5898168,46.1421103],[12.589654,46.1421607],[12.5894465,46.1422256],[12.589277,46.1423066],[12.5891307,46.1423612],[12.5889917,46.1423775],[12.5888858,46.1423945],[12.588834,46.1424434],[12.5887621,46.1425688],[12.5886395,46.1427162],[12.5885193,46.142806],[12.5884053,46.1428843],[12.5882652,46.1429236],[12.5880983,46.1429432],[12.5878644,46.1429806],[12.587657,46.1430416],[12.5875044,46.1431153],[12.5873158,46.1432536],[12.5870929,46.1434142],[12.5869571,46.1434845],[12.5867715,46.1435536],[12.5865917,46.1436153],[12.5863991,46.1437188],[12.5861881,46.1438605],[12.5860353,46.1439419],[12.5858761,46.1442924],[12.5852541,46.1443446],[12.5846484,46.1444048],[12.5841756,46.1444603],[12.5823557,46.1445709],[12.5819378,46.1446521],[12.581427755524674,46.14474601141242],[12.58142828,46.14483853],[12.58169569,46.14479379],[12.58199284,46.14480575],[12.58228248,46.14480621],[12.58248264,46.14482728],[12.58257829,46.14484604],[12.58244285,46.14499987],[12.58237513,46.14507674],[12.58223074,46.1450681],[12.5821272,46.1450435],[12.58199255,46.14499592],[12.5818958,46.14499945],[12.5817317,46.14507428],[12.58160721,46.1451612],[12.58172607,46.14520286],[12.58169821,46.14528615],[12.58158916,46.14539014],[12.58154379,46.14550663],[12.58149064,46.14561738],[12.58165095,46.14563193],[12.58178487,46.14569633],[12.58177293,46.14578554],[12.58165402,46.14592846],[12.58168593,46.14611931],[12.58179965,46.14627841],[12.58187852,46.14631365],[12.58212964,46.14627414],[12.58234647,46.1462844],[12.58230863,46.14641221],[12.58221685,46.14648857],[12.58206939,46.14654701],[12.5818473,46.14665977],[12.58188129,46.14680035],[12.58213811,46.14681694],[12.58241574,46.14672211],[12.58239065,46.14692858],[12.5824239,46.14708589],[12.58221883,46.14717668],[12.58202784,46.1473125],[12.58178884,46.14744163],[12.58178297,46.14757579],[12.58197765,46.14772535],[12.58221407,46.14765206],[12.5823559,46.14772211],[12.58243183,46.14782443],[12.58266085,46.14773981],[12.58275533,46.14760195],[12.58290763,46.14761633],[12.58280402,46.14777641],[12.58269117,46.1479642],[12.58257385,46.14807359],[12.58242468,46.14817114],[12.58243681,46.14826086],[12.58261293,46.14828133],[12.58263369,46.14836016],[12.58273198,46.14850201],[12.58294858,46.14851784],[12.5830784,46.1484926],[12.58327085,46.14832324],[12.58339578,46.14840985],[12.58339793,46.14854409],[12.58351116,46.14871434],[12.58400315,46.14887019],[12.58435803,46.14903429],[12.58468352,46.14913622],[12.58503225,46.14907096],[12.58505788,46.14866874],[12.58509962,46.14845146],[12.58525937,46.14829257],[12.58540658,46.14823979]]],[[[12.60616501,46.1354566],[12.60657398,46.13525628],[12.60688914,46.13514462],[12.60713041,46.13512177],[12.60740228,46.13508571],[12.60763406,46.1350488],[12.60781471,46.13503863],[12.60831746,46.13498652],[12.60894809,46.13498577],[12.6091681,46.13499038],[12.60975804,46.13500272],[12.61001815,46.13500816],[12.61042151,46.1349401],[12.61099634,46.1348407],[12.61126899,46.13478376],[12.61147208,46.13471844],[12.61175362,46.13468949],[12.6120169,46.1346184],[12.61240262,46.13449425],[12.61260409,46.13446363],[12.61281654,46.13441236],[12.61318024,46.13433644],[12.6133553,46.13422175],[12.61343746,46.13417477],[12.61373453,46.13401384],[12.61534812,46.13373424],[12.61575105,46.13367308],[12.61637891,46.13350519],[12.61671018,46.13348429],[12.61716741,46.13355647],[12.61751231,46.13368202],[12.61770471,46.13363032],[12.61814846,46.13355605],[12.61833257,46.13346242],[12.61849766,46.13334751],[12.61888456,46.13319546],[12.61867168,46.13279421],[12.61835673,46.1324396],[12.6182433,46.13228406],[12.61801644,46.13197305],[12.6176722,46.13136727],[12.61757126,46.13115627],[12.61646713,46.13006816],[12.61630379,46.12991166],[12.61616066,46.12974856],[12.616048370132035,46.129690946042444],[12.6159611,46.1297344],[12.6154806,46.1300067],[12.6149181,46.1302961],[12.6148986,46.1303141],[12.6149177,46.1303475],[12.6150955,46.1305766],[12.6150709,46.1306187],[12.6147321,46.1308181],[12.6146824,46.1308433],[12.6142908,46.1309796],[12.6137296,46.1313436],[12.6126095,46.1319163],[12.6118885,46.1323306],[12.6109183,46.1330005],[12.6102557,46.1333901],[12.6092087,46.1338067],[12.6089731,46.1338825],[12.6086513,46.1340334],[12.6083397,46.1342039],[12.608115,46.1342799],[12.6077634,46.1344802],[12.6074674,46.134674],[12.6072787,46.1348162],[12.607134,46.1349632],[12.6070481,46.1350306],[12.6067836,46.1351327],[12.6064912,46.135242],[12.6062815,46.1353568],[12.6059924,46.13552],[12.605917303190592,46.13557947032587],[12.60616501,46.1354566]]]]}},{"type":"Feature","id":16,"properties":{"class":"p4","label":"Molto elevata P4"},"geometry":{"type":"Polygon","coordinates":[[[12.63399329,46.14702707],[12.63397486,46.14650819],[12.63399316,46.14639544],[12.63396539,46.14632133],[12.63375963,46.14602232],[12.63366678,46.14586847],[12.63349581,46.14568529],[12.6333404,46.14544716],[12.63322155,46.1452836],[12.63308027,46.14502732],[12.63293352,46.14489539],[12.63266392,46.1446963],[12.63259939,46.14465816],[12.63242514,46.14454861],[12.63216254,46.14434058],[12.63177921,46.14416685],[12.63149544,46.1439905],[12.63133954,46.14391824],[12.63120207,46.14403509],[12.63112114,46.14422224],[12.63097056,46.14449083],[12.63075038,46.14483628],[12.63092587,46.14491363],[12.63109497,46.14498617],[12.63128123,46.14512359],[12.63142982,46.14520956],[12.63156336,46.1453413],[12.63163931,46.14542118],[12.63192745,46.14565279],[12.63202966,46.14574239],[12.6321064,46.14580383],[12.63212976,46.14587802],[12.63221983,46.14593974],[12.63240471,46.14610936],[12.6324368,46.14628507],[12.63251051,46.14642016],[12.63261114,46.14654654],[12.63261301,46.1466571],[12.63261251,46.14682287],[12.63257592,46.14705702],[12.6325576,46.14717634],[12.63240092,46.14727903],[12.63230136,46.14728155],[12.63224991,46.14740028],[12.63226549,46.14750194],[12.63246979,46.14768114],[12.63263159,46.14792399],[12.63265835,46.14806719],[12.63265203,46.14821448],[12.6326469,46.14833408],[12.63264574,46.14851829],[12.63270929,46.14857946],[12.63286323,46.14869776],[12.63308436,46.14894642],[12.63319179,46.14906844],[12.63322796,46.14915208],[12.63340238,46.14940896],[12.63337349,46.14946362],[12.63362904,46.14952877],[12.63422657,46.14965166],[12.63444358,46.14968847],[12.63460866,46.14970107],[12.63499174,46.14972745],[12.63524097,46.14978319],[12.63563065,46.1498097],[12.63567677,46.14981525],[12.63571107,46.14978833],[12.63566288,46.14967681],[12.63558295,46.14953241],[12.63550342,46.14937875],[12.63548517,46.14918496],[12.63546932,46.14909256],[12.63547346,46.1489959],[12.63544487,46.14888937],[12.63532985,46.14879033],[12.63519681,46.14864943],[12.635178,46.148626],[12.63516021,46.14858792],[12.63480495,46.14833549],[12.63440947,46.14807269],[12.63417084,46.14794525],[12.63398844,46.14777173],[12.63396988,46.14757344],[12.63398279,46.14727202],[12.63399329,46.14702707]]]}},{"type":"Feature","id":18,"properties":{"class":"p4","label":"Molto elevata P4"},"geometry":{"type":"Polygon","coordinates":[[[12.65804304,46.17158971],[12.65803689,46.17149967],[12.65803014,46.17142357],[12.65798396,46.17133964],[12.65792148,46.17117249],[12.65786005,46.17097773],[12.65784816,46.17079083],[12.65784346,46.17066635],[12.65784844,46.17054901],[12.65776369,46.17043666],[12.65769565,46.1704007],[12.65761852,46.17034386],[12.65753143,46.17028673],[12.65741486,46.17022215],[12.65734611,46.17020004],[12.657231,46.17010093],[12.65720358,46.17004501],[12.65718599,46.16998939],[12.65716853,46.16993378],[12.65714098,46.16987786],[12.65707382,46.16982123],[12.65700578,46.16978527],[12.6569181,46.16974198],[12.65683159,46.16967109],[12.6567945,46.16960814],[12.65679626,46.16956668],[12.65679772,46.16953215],[12.65678922,46.16949742],[12.65672353,46.16940625],[12.65666679,46.16933597],[12.65658234,46.16921679],[12.65657354,46.16918898],[12.65654759,46.16909853],[12.65653101,46.16902223],[12.65651489,46.16893199],[12.65645932,46.1688341],[12.65644128,46.16879224],[12.65641503,46.16870881],[12.65641679,46.16866736],[12.65643321,46.1685156],[12.65643614,46.16844654],[12.65641972,46.16836322],[12.65637237,46.16830699],[12.65633468,46.16825789],[12.6562885,46.16817396],[12.65627163,46.1681045],[12.65625493,46.1680281],[12.65619832,46.16795782],[12.65604571,46.16780268],[12.65599806,46.16775328],[12.65592504,46.16759977],[12.6559268,46.16755832],[12.65597943,46.16749028],[12.65604261,46.16740868],[12.65605463,46.16736051],[12.65605814,46.16727769],[12.65604144,46.1672013],[12.65591872,46.16704677],[12.65587167,46.16698353],[12.65581506,46.16691333],[12.65574983,46.16680831],[12.65568737,46.16664116],[12.65567888,46.16660643],[12.65562156,46.1665499],[12.65562361,46.16650161],[12.65559737,46.16641809],[12.65556936,46.16637602],[12.65553227,46.16631307],[12.65543699,46.16621437],[12.65541894,46.16617251],[12.65539022,46.16614429],[12.65537188,46.16610935],[12.65535254,46.16609518],[12.65522134,46.16590583],[12.65510566,46.16582056],[12.65499087,46.16571452],[12.65496227,46.16568631],[12.65494411,46.16564444],[12.65494528,46.16561684],[12.6547849,46.16541311],[12.6547283,46.16534283],[12.65466044,46.16529995],[12.65457306,46.16524982],[12.65450533,46.16520694],[12.65446765,46.16515775],[12.65444919,46.16512281],[12.65442294,46.16503938],[12.65439553,46.16498346],[12.65427927,46.16491196],[12.65416242,46.1648543],[12.65409544,46.16479064],[12.65394912,46.16472544],[12.65388038,46.16470333],[12.65374226,46.1646797],[12.65350143,46.1646654],[12.65315055,46.1646437],[12.653222,46.16461448],[12.65326663,46.16458524],[12.65329051,46.16453542],[12.65332897,46.16448086],[12.65333771,46.16444585],[12.65333942,46.16440566],[12.65334049,46.16438048],[12.65329928,46.16432932],[12.65326424,46.16430349],[12.65321436,46.16428231],[12.65314343,46.1642507],[12.65307876,46.16423929],[12.65304999,46.16423366],[12.65302113,46.16423307],[12.65284119,46.16420921],[12.65274903,46.16416205],[12.65264975,46.16411474],[12.65257869,46.16408312],[12.65250776,46.16405152],[12.65244352,46.16403004],[12.65237928,46.16400856],[12.65224312,46.16397561],[12.65215706,46.16395872],[12.65207853,46.16393199],[12.65198552,46.16390488],[12.65175086,46.16380952],[12.65139227,46.16373177],[12.651321,46.1637051],[12.65116323,46.16367171],[12.65101301,46.16362839],[12.65079761,46.16358868],[12.65049559,46.16354224],[12.65038032,46.16352979],[12.65017886,46.16350053],[12.64999871,46.16348171],[12.64976839,46.16345186],[12.64963905,46.16342904],[12.64948129,46.16339564],[12.64933013,46.16337741],[12.64916156,46.16342425],[12.64913781,46.16347407],[12.64895338,46.16355578],[12.64886462,46.16359922],[12.64879111,46.16362795],[12.64871067,46.16364637],[12.64860883,46.16365939],[12.64839905,46.16365507],[12.64825449,46.1636521],[12.64811045,46.16363401],[12.64800989,46.16361691],[12.64790985,46.16358461],[12.64766816,46.16348405],[12.64762489,46.16347812],[12.64751751,46.1634508],[12.64744041,46.16339395],[12.64739324,46.16331243],[12.64730897,46.16325039],[12.64718817,46.1631976],[12.64689383,46.16314122],[12.6467205,46.16313261],[12.64664147,46.1631209],[12.64654014,46.16311882],[12.64641784,46.16310118],[12.64633114,46.16309939],[12.64625155,46.16309775],[12.64617145,46.16311122],[12.64607629,46.16313446],[12.64597337,46.16317257],[12.64580515,46.16321437],[12.64568839,46.16323708],[12.64562308,46.16324077],[12.64548564,46.16323794],[12.64539254,46.16321595],[12.64528482,46.16319357],[12.64516266,46.16317593],[12.64507711,46.16314402],[12.64501287,46.16312253],[12.6448844,46.16307966],[12.64476382,46.16302182],[12.64460691,46.16296827],[12.64444212,46.16292968],[12.64429148,46.16289643],[12.64418368,46.16287909],[12.6440402,46.16285093],[12.64379796,46.16276043],[12.64371177,46.16274362],[12.64347593,46.16267333],[12.64328271,46.16262407],[12.64311174,46.16256015],[12.64301205,46.1625229],[12.64289785,46.16248536],[12.64280463,46.16246327],[12.6427109,46.1624563],[12.64266754,46.16245541],[12.6424859,46.16247182],[12.64242059,46.16247551],[12.6422678,46.16249243],[12.64212985,46.1625047],[12.64210087,46.1625041],[12.64199967,46.16250201],[12.64176828,46.16249724],[12.64170383,46.16248079],[12.64157515,46.16244294],[12.64144008,46.1623848],[12.64132739,46.16231209],[12.64127808,46.16228083],[12.64112054,46.16224239],[12.64097012,46.16220409],[12.64079105,46.16216017],[12.64066272,46.16211719],[12.64043106,46.16211259],[12.64030131,46.16209983],[12.64011349,46.16209091],[12.64003403,46.16208927],[12.63990299,46.16210672],[12.63974266,46.16213356],[12.63961692,46.16219639],[12.63951387,46.1622345],[12.63949887,46.16224921],[12.63954581,46.16233578],[12.6396521,46.16238828],[12.63972187,46.16245003],[12.6398141,46.16249225],[12.63997078,46.16255075],[12.64014109,46.16262978],[12.64028937,46.16271834],[12.6403587,46.16279024],[12.64041333,46.1628668],[12.64043279,46.16291751],[12.64046365,46.16304397],[12.64046171,46.1630892],[12.64046552,46.16316974],[12.64046684,46.16330558],[12.64045011,46.16336058],[12.64042407,46.16346066],[12.64044066,46.1635817],[12.64043808,46.16364204],[12.64043636,46.16368223],[12.64042718,46.16372731],[12.64041799,46.16377248],[12.64040838,46.16382755],[12.64038492,46.16386738],[12.64033033,46.16395671],[12.64032192,46.16398668],[12.64030506,46.16404168],[12.6403042,46.16406183],[12.64029652,46.16407175],[12.64029523,46.16410187],[12.64029395,46.164132],[12.6402933,46.1641471],[12.64029947,46.16417243],[12.64032001,46.16419796],[12.64034814,46.16421871],[12.64037592,46.16424439],[12.64040362,46.1642752],[12.64042429,46.16430074],[12.64045911,46.16433161],[12.64046571,46.16434687],[12.64047231,46.16436212],[12.64048509,46.16440262],[12.64048444,46.16441772],[12.64048294,46.16445288],[12.64045948,46.16449263],[12.64039948,46.1645417],[12.64033841,46.16461586],[12.64030813,46.16464548],[12.64026262,46.16469485],[12.64021009,46.16473903],[12.640196,46.16477537],[12.64018335,46.16480804],[12.64017066,46.16482363],[12.64030304,46.16482889],[12.64056678,46.16484093],[12.64131138,46.16492971],[12.64152032,46.16493795],[12.64175464,46.16494416],[12.64196169,46.16494964],[12.64213739,46.16495429],[12.64232676,46.16495905],[12.64256305,46.16496431],[12.64283061,46.16497026],[12.64307276,46.16497565],[12.64320362,46.16497856],[12.64366449,46.16498884],[12.64390078,46.16499411],[12.64435049,46.16500259],[12.64458152,46.16497738],[12.64481028,46.16498245],[12.64499581,46.16498656],[12.64539848,46.16499548],[12.64564142,46.16503521],[12.64579482,46.16503956],[12.64652574,46.16504245],[12.64681247,46.16504226],[12.64696572,46.165027],[12.64755952,46.16495334],[12.64790557,46.16490357],[12.6482985,46.16485665],[12.64850584,46.16483189],[12.64869771,46.16480897],[12.64893336,46.16478082],[12.64910858,46.16475989],[12.64927142,46.16474044],[12.64940267,46.16473868],[12.64949297,46.16472967],[12.64956541,46.16472709],[12.64963434,46.16471492],[12.64972051,46.16471126],[12.64982265,46.16469978],[12.64989832,46.16468576],[12.65004431,46.16467913],[12.65018674,46.16467266],[12.65044892,46.1646624],[12.65063841,46.1646568],[12.65093864,46.16466298],[12.65117071,46.16469213],[12.65139372,46.16472238],[12.65173161,46.16477203],[12.65198899,46.16481158],[12.65213773,46.16483117],[12.65225309,46.16484464],[12.65242648,46.16484084],[12.65264499,46.16480151],[12.65283762,46.16477128],[12.65272819,46.16489576],[12.6526088,46.16500743],[12.6525468,46.16505511],[12.65248229,46.16510086],[12.65237267,46.16516565],[12.65221807,46.16530729],[12.65207572,46.16540768],[12.65192474,46.16556164],[12.65191373,46.16558904],[12.65188237,46.16562296],[12.65186198,46.1656364],[12.65183133,46.16565647],[12.65178971,46.1656971],[12.65175847,46.16573102],[12.65174645,46.1657791],[12.65172371,46.16584776],[12.65163105,46.1659219],[12.65162987,46.16594951],[12.65169614,46.16602692],[12.65183321,46.16607807],[12.65198024,46.16612951],[12.65210587,46.16621508],[12.65223181,46.16629363],[12.65231846,46.1663576],[12.65245465,46.16642951],[12.65254173,46.16648665],[12.65262881,46.16654371],[12.65273569,46.16660116],[12.65282336,46.16664445],[12.65294841,46.16674377],[12.65301569,46.16680051],[12.65308166,46.16688475],[12.65328119,46.16710314],[12.65330053,46.16711731],[12.65337618,46.16720878],[12.65342353,46.16726501],[12.65351868,46.16736372],[12.65359404,46.16746202],[12.65371792,46.16758894],[12.65376497,46.16765219],[12.65384678,46.16774216],[12.65388427,46.16777443],[12.65394098,46.16781159],[12.65397808,46.16785294],[12.65410286,46.1679681],[12.65416528,46.16802338],[12.65419629,46.1680556],[12.65423302,46.16810586],[12.65432525,46.16822484],[12.65438576,46.16832517],[12.65443504,46.16838478],[12.65449092,46.16844451],[12.65453297,46.16852188],[12.65455733,46.16855847],[12.65458759,46.16860859],[12.65459938,46.16863583],[12.65462335,46.16868141],[12.65464143,46.16871328],[12.6546538,46.16872704],[12.65473937,46.16885038],[12.65475116,46.16887772],[12.65480711,46.16893286],[12.65483756,46.16897858],[12.65486077,46.16904205],[12.65487275,46.16906489],[12.65489654,46.16911488],[12.65490853,46.16913762],[12.65492065,46.16916037],[12.65495622,46.1692377],[12.65497981,46.16929227],[12.65501711,46.16932903],[12.65501253,46.16943703],[12.65498511,46.16947256],[12.65494265,46.16955719],[12.65489493,46.1696103],[12.65487912,46.16967756],[12.6549497,46.16963448],[12.6554208,46.16964415],[12.65585223,46.16954729],[12.65645791,46.16963299],[12.65666066,46.16977223],[12.65706717,46.16983288],[12.65721093,46.17012358],[12.65767263,46.17040585],[12.65779505,46.17056532],[12.65783093,46.17098834],[12.65783896,46.17124528],[12.65782438,46.17135752],[12.65794879,46.17155103],[12.65806689,46.17165841],[12.65804304,46.17158971]]]}},{"type":"Feature","id":19,"properties":{"class":"p4","label":"Molto elevata P4"},"geometry":{"type":"Polygon","coordinates":[[[12.65808705,46.17172192],[12.6580696,46.17166621],[12.65806689,46.17165841],[12.65808705,46.17172192]]]}},{"type":"Feature","id":20,"properties":{"class":"p4","label":"Molto elevata P4"},"geometry":{"type":"Polygon","coordinates":[[[12.66097972,46.17295738],[12.66115547,46.17298582],[12.6613394,46.17298958],[12.66144546,46.17294459],[12.66153227,46.17289246],[12.66165552,46.17281173],[12.66178514,46.1727458],[12.66213588,46.1725368],[12.66233183,46.1722565],[12.66248298,46.17206771],[12.66248629,46.17198957],[12.66252177,46.17187662],[12.66256568,46.17180642],[12.66259894,46.17174311],[12.66263142,46.17170112],[12.66271141,46.17150376],[12.66272614,46.1713975],[12.66273066,46.17129095],[12.66273487,46.17119149],[12.66273937,46.17108502],[12.6627108,46.17103467],[12.66260267,46.17093292],[12.66254913,46.17074705],[12.66244026,46.1706595],[12.66234355,46.17052964],[12.66228581,46.17044314],[12.66218669,46.17037001],[12.66216053,46.17026291],[12.66202683,46.17003986],[12.66186997,46.16988023],[12.66172171,46.16975641],[12.66169568,46.16964923],[12.66168996,46.16954255],[12.6616226,46.16944163],[12.66158621,46.16933424],[12.6615295,46.16922652],[12.66149612,46.16904809],[12.66146094,46.16891236],[12.66142515,46.16879076],[12.66139268,46.16859111],[12.66137656,46.16849133],[12.66136003,46.16839856],[12.66135161,46.16835573],[12.66129477,46.16824791],[12.66128545,46.16822648],[12.66124124,46.16806205],[12.66124335,46.16801232],[12.66119841,46.16786227],[12.66114218,46.16774025],[12.66105479,46.1676319],[12.66087239,46.16759262],[12.66072125,46.16753975],[12.66067349,46.16741664],[12.66060014,46.16727051],[12.6605309,46.16717126],[12.66048486,46.16710228],[12.66042809,46.16699897],[12.66039512,46.16690901],[12.66032858,46.16674601],[12.66013765,46.16634223],[12.66012144,46.16629087],[12.66005769,46.16620874],[12.66002381,46.16614001],[12.65995976,46.16606211],[12.65992029,46.1659848],[12.65993624,46.16589576],[12.65993678,46.16588299],[12.6599625,46.16585381],[12.6599884,46.16582023],[12.66000214,46.1657865],[12.66000984,46.1657484],[12.66001182,46.16570164],[12.65999078,46.16562039],[12.66001403,46.16550603],[12.65997051,46.16537751],[12.65990736,46.16527839],[12.65988024,46.16519701],[12.65979997,46.16506784],[12.65974213,46.16499006],[12.65971483,46.16491291],[12.6597115,46.1648448],[12.65968885,46.16480177],[12.65964317,46.16472433],[12.65957317,46.16464631],[12.65953316,46.16458167],[12.65942712,46.1644859],[12.65938717,46.16441704],[12.65933541,46.16433939],[12.6592719,46.16424881],[12.65923834,46.16417576],[12.65914947,46.1641059],[12.65909001,46.16406643],[12.65903591,46.16404399],[12.65888897,46.1640453],[12.65880938,46.16404367],[12.65861527,46.16400567],[12.65837393,46.16392413],[12.6582406,46.16389161],[12.6581565,46.16385586],[12.65805528,46.16378998],[12.65788141,46.16370559],[12.657742,46.16367294],[12.65763988,46.16362837],[12.65728503,46.16348069],[12.65721948,46.1634411],[12.65704531,46.16336093],[12.65693675,46.16332469],[12.65686463,46.16329342],[12.65678072,46.16325336],[12.65672113,46.16321389],[12.65664473,46.16314005],[12.65658726,46.16305373],[12.65657177,46.16298537],[12.65655074,46.16290412],[12.65650152,46.16276702],[12.6565368,46.1625125],[12.65659186,46.162369],[12.65658961,46.16227544],[12.65661412,46.16213132],[12.65671044,46.16188228],[12.65680905,46.16186306],[12.65691954,46.16185687],[12.65703593,46.16185493],[12.65715255,46.16184463],[12.65722665,46.16182914],[12.65732575,46.16180139],[12.65743183,46.16175253],[12.65746688,46.16164687],[12.65750845,46.16153711],[12.6575117,46.16146058],[12.65753976,46.16137611],[12.65758783,46.1612537],[12.65762198,46.16116935],[12.65766197,46.16109367],[12.65772112,46.16099696],[12.65778081,46.16088766],[12.65790315,46.16074554],[12.65806874,46.16059152],[12.6581959,46.16047929],[12.6582977,46.16038777],[12.65842395,46.16029685],[12.65853237,46.16019269],[12.6586452,46.16013119],[12.6587906,46.16001933],[12.65888794,46.15988947],[12.65900406,46.15974722],[12.65899924,46.15955254],[12.65894898,46.15945494],[12.6589283,46.15937468],[12.65890211,46.15927758],[12.65888124,46.15920155],[12.65885381,46.15913375],[12.65876674,46.15905214],[12.65866666,46.15898709],[12.6585861,46.15893531],[12.65855595,46.15891624],[12.65852766,46.1588901],[12.65850667,46.15886303],[12.65850348,46.15883434],[12.65849559,46.15881267],[12.65849784,46.15879327],[12.65851212,46.15877107],[12.65853689,46.1587398],[12.65857636,46.15871307],[12.65858862,46.15870198],[12.65864375,46.158651],[12.65870437,46.15857448],[12.65873117,46.15853201],[12.65874732,46.15842902],[12.65874022,46.15838892],[12.6587401,46.15835822],[12.65872303,46.15830873],[12.65871113,46.1582778],[12.65869409,46.15826107],[12.6586659,46.15819911],[12.65863214,46.1581248],[12.65860459,46.15808121],[12.65854672,46.15798895],[12.65854492,46.15796128],[12.65856201,46.15790637],[12.65856177,46.15784192],[12.65859684,46.15779665],[12.6586364,46.1577647],[12.6586842,46.15774939],[12.65873176,46.15773956],[12.65872372,46.15769989],[12.65866624,46.15754076],[12.65855691,46.15745878],[12.65851575,46.15736037],[12.65849642,46.15729715],[12.65844789,46.15722911],[12.65837713,46.15712632],[12.65814747,46.15682794],[12.65796639,46.15664836],[12.65786615,46.15656],[12.65768732,46.15642817],[12.6575115,46.15632916],[12.65733555,46.15623015],[12.65710786,46.15613899],[12.65694849,46.15605229],[12.65683746,46.15604407],[12.65669264,46.15602022],[12.65651278,46.15601356],[12.65621435,46.15597162],[12.65601403,46.15594366],[12.65597936,46.15595186],[12.65599767,46.15602379],[12.65603772,46.15609319],[12.65606534,46.1561474],[12.65607976,46.1562133],[12.65613186,46.15629789],[12.65616852,46.15634338],[12.656189,46.15636756],[12.65620418,46.1564126],[12.65621196,46.15643364],[12.65621937,46.15646061],[12.65622727,46.15647571],[12.65623505,46.15649378],[12.65628165,46.15650662],[12.65634457,46.15654076],[12.65638677,46.15655648],[12.65645044,46.15657272],[12.6564885,46.15658538],[12.65653962,46.15659246],[12.65656926,46.15660198],[12.6566033,46.15660862],[12.65663759,46.15660932],[12.6567495,46.15659974],[12.65685162,46.15661965],[12.65692346,46.15664201],[12.65695673,46.15666654],[12.65697306,46.15668775],[12.65701475,46.15671543],[12.65705657,46.15674014],[12.65708571,46.15676162],[12.65711408,46.15680099],[12.65714309,46.15682246],[12.65717248,46.15683792],[12.65722132,46.15690156],[12.65724391,46.15697357],[12.65725457,46.15702743],[12.6572783,46.15707265],[12.65728985,46.15710565],[12.65729273,46.15713847],[12.65730766,46.15718953],[12.6573442,46.15723798],[12.65738087,46.15728338],[12.65742129,46.1573409],[12.65754072,46.15745964],[12.65762271,46.15754772],[12.65770899,46.1576358],[12.65780468,46.15770634],[12.6578833,46.15777347],[12.65794094,46.15783136],[12.65797232,46.15789752],[12.6580125,46.15796395],[12.658069,46.15804557],[12.65807565,46.15809044],[12.65812839,46.15816307],[12.65813827,46.1583332],[12.6580944,46.15845749],[12.6580739,46.15853762],[12.65806258,46.158603],[12.65805866,46.15869526],[12.65802725,46.15872747],[12.65801995,46.15879887],[12.65802093,46.15887638],[12.65802656,46.15894508],[12.65805368,46.15901421],[12.65809699,46.15910447],[12.65814758,46.15922773],[12.65829198,46.15946316],[12.65828895,46.15953465],[12.65829344,46.15963015],[12.65829782,46.15973158],[12.65830797,46.15979443],[12.65830469,46.15987185],[12.65821611,46.15993862],[12.65813909,46.16003541],[12.65799927,46.16009509],[12.65794324,46.16010294],[12.65773245,46.16011653],[12.65756438,46.16013694],[12.65722535,46.16014186],[12.65697726,46.1601249],[12.65682301,46.16012173],[12.65666449,46.16011848],[12.65642784,46.16013424],[12.65632948,46.16012925],[12.65622233,46.16012705],[12.65611506,46.16012782],[12.65599874,46.16014028],[12.65591244,46.16015345],[12.65583003,46.16017561],[12.65575177,46.16020083],[12.65563858,46.16024027],[12.65553406,46.16027682],[12.65546031,46.16029619],[12.65540391,46.16031294],[12.65522602,46.16035996],[12.65511207,46.16041729],[12.65504637,46.1604487],[12.65495956,46.16047374],[12.65485064,46.16051327],[12.65477225,46.16054145],[12.65469436,46.16055776],[12.65461233,46.16057093],[12.6544043,46.16062336],[12.65423647,46.16063476],[12.65411625,46.16063832],[12.65400421,46.16065087],[12.65386991,46.16068393],[12.65376979,46.16071761],[12.65366577,46.16074229],[12.65357858,46.16077632],[12.65346539,46.16081567],[12.65342141,46.16084167],[12.65336501,46.16085537],[12.65319139,46.16090544],[12.65307782,46.16095378],[12.65296813,46.1610112],[12.65292353,46.16105195],[12.6528705,46.16108965],[12.65280391,46.16114192],[12.65275478,46.16118861],[12.65268941,46.16131246],[12.65267884,46.16135995],[12.6526591,46.16141921],[12.65265052,46.16152038],[12.65264684,46.16160679],[12.65264431,46.16166632],[12.65261188,46.16172533],[12.65257015,46.16179899],[12.65256309,46.1618614],[12.65257777,46.16192137],[12.65265863,46.16203625],[12.65270545,46.16214755],[12.65275251,46.16224986],[12.65279518,46.16235514],[12.65283925,46.16242751],[12.65291448,46.16247378],[12.65299487,46.16250226],[12.65303179,46.1625418],[12.6530997,46.16265651],[12.65315206,46.16273805],[12.65320932,46.16280483],[12.65323969,46.16289483],[12.6532369,46.16296038],[12.65321539,46.16306425],[12.65322,46.16315678],[12.65334809,46.16326966],[12.65342155,46.16336063],[12.6535661,46.16348879],[12.65368239,46.16358064],[12.65388347,46.16369205],[12.65414134,46.16378087],[12.65428102,46.1638255],[12.65434923,46.16383581],[12.6544884,46.16388934],[12.65451792,46.16390191],[12.65456829,46.16392977],[12.65463095,46.16396687],[12.65468069,46.16400956],[12.65473859,46.16405845],[12.65479597,46.16412227],[12.65485764,46.16418609],[12.65489807,46.16424362],[12.65495508,46.16431337],[12.65499225,46.16434689],[12.65509387,46.16437877],[12.65519198,46.16439276],[12.65528556,46.16440953],[12.65551228,46.16452452],[12.65567834,46.16455475],[12.65573776,46.16456785],[12.65584416,46.16458794],[12.65598121,46.16459372],[12.65615218,46.16460623],[12.65631207,46.16467809],[12.65654031,46.16475729],[12.65666743,46.16479563],[12.65678538,46.16484575],[12.65683587,46.16486767],[12.6570145,46.16490409],[12.65710293,46.16494173],[12.6572073,46.16500948],[12.65726947,46.16506142],[12.65731896,46.16510708],[12.65733529,46.16512829],[12.65737246,46.16516191],[12.65739429,46.16525173],[12.65740357,46.16533841],[12.65740367,46.16543678],[12.65739912,46.16554397],[12.65739004,46.16565709],[12.65737897,46.16571654],[12.65735784,46.16580845],[12.65735556,46.16586213],[12.65735681,46.1659365],[12.65739632,46.16611623],[12.65744328,46.16622447],[12.65747014,46.16629657],[12.65752741,46.16636336],[12.65756823,46.1664119],[12.65757811,46.16658202],[12.65761375,46.16675564],[12.65762919,46.16679475],[12.65763884,46.16686946],[12.65763632,46.16692899],[12.65763366,46.16699158],[12.65763215,46.16702728],[12.65762823,46.16711963],[12.65763538,46.1671556],[12.65768525,46.16719235],[12.65772382,46.16723904],[12.6577934,46.16729032],[12.65781616,46.16731572],[12.65783492,46.16734382],[12.65788033,46.16740011],[12.65793423,46.16744558],[12.65796456,46.16748499],[12.65799133,46.16751047],[12.65801433,46.16753308],[12.65804806,46.16758372],[12.65807012,46.16762567],[12.65810763,46.16768188],[12.65812238,46.1677099],[12.65813359,46.16772957],[12.65817264,46.16784116],[12.65819093,46.16788032],[12.65821311,46.16792236],[12.65824697,46.16797012],[12.65830358,46.16804337],[12.65833732,46.16809392],[12.6583792,46.16814185],[12.65845811,46.16825435],[12.65847663,46.16828794],[12.6585145,46.16833587],[12.65859471,46.1684178],[12.6586256,46.16844066],[12.65867869,46.16850547],[12.65874981,46.16861223],[12.65879465,46.16868514],[12.65885469,46.16877233],[12.65892571,46.16888457],[12.65896217,46.16896569],[12.65906835,46.16918674],[12.65913418,46.1693266],[12.65917289,46.16944934],[12.65914815,46.16956242],[12.65916821,46.16965148],[12.6591219,46.16980578],[12.65913643,46.16993352],[12.6592459,46.17007706],[12.65932126,46.17017563],[12.65949996,46.17028729],[12.65958901,46.17035013],[12.65976004,46.17045335],[12.65983446,46.17048539],[12.65999936,46.1705469],[12.66011741,46.17058262],[12.66017614,46.17060596],[12.66044979,46.17073622],[12.66058248,46.17080266],[12.6606759,46.17085722],[12.66080529,46.17090982],[12.66086036,46.1709248],[12.66102974,46.17097534],[12.6610833,46.17102909],[12.6611312,46.17112151],[12.66118559,46.17124727],[12.66122715,46.17139779],[12.66125857,46.17159788],[12.66126804,46.17175053],[12.66123069,46.17188],[12.66118554,46.17200381],[12.66111692,46.17211599],[12.66103828,46.17218647],[12.66092354,46.17225891],[12.66082247,46.17229005],[12.66072612,46.17230752],[12.66065819,46.17231162],[12.66054591,46.17232597],[12.66050581,46.17233073],[12.66047498,46.17233973],[12.66037872,46.17227583],[12.6603527,46.17226612],[12.66026274,46.17220929],[12.66011622,46.17224292],[12.66003248,46.17235127],[12.65989799,46.17241269],[12.65970953,46.17250054],[12.65949713,46.17253282],[12.65931255,46.17252904],[12.6591281,46.17252526],[12.65898839,46.17251448],[12.6588598,46.17249798],[12.65874191,46.17246101],[12.65862535,46.17239643],[12.65850818,46.17234561],[12.65840245,46.17226055],[12.65839542,46.17219129],[12.65836874,46.17211469],[12.65834131,46.17205887],[12.65825656,46.17194652],[12.65824037,46.1719248],[12.65830975,46.17207335],[12.65837556,46.17225884],[12.6576803,46.17253698],[12.65762376,46.17248415],[12.65762454,46.17248581],[12.65769076,46.17260425],[12.65771303,46.1726903],[12.65778719,46.17277741],[12.65786237,46.17283745],[12.65801895,46.17296684],[12.65808062,46.17304011],[12.65814971,46.17309111],[12.65830173,46.17317532],[12.65837235,46.17319027],[12.65868217,46.17321911],[12.65883116,46.17322217],[12.65909644,46.1732321],[12.65937468,46.1732423],[12.65956192,46.17325964],[12.65976915,46.17326389],[12.65998285,46.17326826],[12.66019008,46.17327251],[12.66030658,46.17327489],[12.66042301,46.17328177],[12.66059071,46.17329871],[12.6606489,46.1733044],[12.66076539,46.17330678],[12.66087554,46.17330904],[12.6610733,46.17331687],[12.66104081,46.17315114],[12.66097972,46.17295738]]]}},{"type":"Feature","id":21,"properties":{"class":"p4","label":"Molto elevata P4"},"geometry":{"type":"Polygon","coordinates":[[[12.6566552,46.1733576],[12.65619528,46.17258902],[12.65572526,46.17259889],[12.65439031,46.1718526],[12.65427035,46.17170498],[12.65392924,46.17142412],[12.65399805,46.171227],[12.65427749,46.1711406],[12.65382696,46.17077543],[12.65430553,46.17053672],[12.65425165,46.17032303],[12.65413646,46.17007056],[12.65401875,46.16987428],[12.65386935,46.16978994],[12.65342126,46.16953684],[12.65301023,46.16925948],[12.65282644,46.16913691],[12.65258147,46.16897554],[12.65240594,46.16887195],[12.65219417,46.16877382],[12.65194589,46.16868735],[12.65183114,46.16863504],[12.65167095,46.16859422],[12.6515113,46.1685409],[12.65141348,46.16851387],[12.65127115,46.16847341],[12.65114694,46.16843333],[12.65099675,46.16836769],[12.65081018,46.16831391],[12.6499854,46.16803432],[12.64977018,46.16801738],[12.64952804,46.16799989],[12.6494217,46.16796017],[12.64906775,46.16782158],[12.64860559,46.16768706],[12.64823472,46.16752309],[12.64807147,46.16734459],[12.64772965,46.16713127],[12.64767835,46.16706766],[12.64719408,46.16703267],[12.64701552,46.16699767],[12.64681883,46.16696869],[12.64655977,46.16692582],[12.64631898,46.16687703],[12.64578394,46.16676601],[12.6452657,46.16668027],[12.64488379,46.16656611],[12.64458715,46.16655999],[12.64417419,46.16653897],[12.64384398,46.16647591],[12.64361212,46.16642729],[12.64332668,46.16637137],[12.64304085,46.16632173],[12.64260337,46.16624394],[12.64228129,46.16619976],[12.64189752,46.16612929],[12.64167379,46.16609965],[12.64118314,46.16600204],[12.64112998,46.16598213],[12.64061108,46.16591517],[12.64037949,46.16586035],[12.64026396,46.16582673],[12.63988832,46.16577514],[12.63961236,46.16570689],[12.63931653,46.16568205],[12.63910213,46.16564639],[12.63876167,46.16561434],[12.63846451,46.1656207],[12.63822944,46.16564707],[12.63808245,46.1657191],[12.63772266,46.16571787],[12.63747987,46.16571285],[12.63727159,46.16574607],[12.63707116,46.16580448],[12.6368898,46.16583825],[12.63679012,46.16585491],[12.63650189,46.16586146],[12.63633118,46.16585793],[12.63608973,46.1658217],[12.63603536,46.16583309],[12.63597122,46.16606936],[12.63596266,46.16626926],[12.63590093,46.16644933],[12.63586732,46.16660497],[12.63589741,46.16674321],[12.63589393,46.1668244],[12.63578291,46.16689717],[12.63575304,46.16696531],[12.63566761,46.16706983],[12.63559655,46.16725593],[12.63553044,46.16732962],[12.63540035,46.16742701],[12.63526961,46.1675368],[12.6351739,46.16767243],[12.63515109,46.16778446],[12.63508641,46.16803333],[12.63516832,46.16822258],[12.63517243,46.16833526],[12.63516279,46.16856015],[12.63523833,46.16868673],[12.63530279,46.16886321],[12.63536007,46.1689957],[12.63535498,46.1691144],[12.63536896,46.16920847],[12.63540065,46.16930921],[12.63539289,46.16949031],[12.63559101,46.16969457],[12.63561646,46.16973263],[12.63564923,46.16980828],[12.63571758,46.16989105],[12.63585388,46.17006893],[12.6359758,46.17016523],[12.63605267,46.1702606],[12.63614567,46.17040014],[12.63624294,46.17043968],[12.63635263,46.17039812],[12.63644606,46.17031878],[12.63657535,46.17024019],[12.63669731,46.17012391],[12.63681846,46.17002633],[12.63703438,46.16981822],[12.63703706,46.16975572],[12.63707532,46.16970026],[12.6371233,46.16963249],[12.63732106,46.16963658],[12.63741035,46.16965094],[12.63750763,46.16969039],[12.63761451,46.16971753],[12.63776308,46.16982069],[12.63788461,46.16992319],[12.63801278,46.17008217],[12.63807328,46.17013967],[12.6382377,46.17029319],[12.63830633,46.17036967],[12.63836468,46.17047717],[12.63838,46.17054004],[12.63841331,46.17060319],[12.63844367,46.17073513],[12.6385248,46.17094318],[12.63853266,46.17096836],[12.63864339,46.17111447],[12.63866057,46.17113364],[12.63870282,46.17119697],[12.63875411,46.17126058],[12.6387789,46.17131113],[12.63881167,46.17138687],[12.63889654,46.17150743],[12.6389745,46.1715778],[12.63906165,46.17164215],[12.63921264,46.17168901],[12.6392922,46.17172189],[12.63944185,46.17180004],[12.63962628,46.17190393],[12.63971437,46.17194949],[12.63987295,46.17202783],[12.63996944,46.17208607],[12.64003127,46.17211237],[12.64005686,46.17214422],[12.64007352,46.17217579],[12.64010683,46.17223903],[12.640166,46.17232773],[12.6402181,46.17237264],[12.64030805,46.17237449],[12.64038976,46.17235737],[12.64047065,46.17235904],[12.6406531,46.17230035],[12.64065711,46.17220656],[12.64066005,46.17213786],[12.64066192,46.17209416],[12.64066619,46.17199417],[12.64066833,46.17194417],[12.6406522,46.1719001],[12.64061156,46.17179918],[12.64061423,46.17173678],[12.64071259,46.17175123],[12.64093114,46.17189956],[12.64110146,46.17191559],[12.64119129,46.17191744],[12.64129044,46.17191328],[12.64142504,46.17192227],[12.64151393,46.17194912],[12.64160935,46.17203245],[12.64161721,46.17205754],[12.64184484,46.17220606],[12.6419064,46.17223865],[12.64201382,46.17225338],[12.64213057,46.17225579],[12.64225651,46.17225839],[12.64229463,46.17220913],[12.64236753,46.17218562],[12.64241417,46.17214905],[12.64247841,46.17211914],[12.64250533,46.1721197],[12.6425765,46.17213989],[12.64262062,46.17215952],[12.64277867,46.17225035],[12.64282252,46.17227627],[12.64287436,46.17232738],[12.64295259,46.17239155],[12.64305654,46.17248747],[12.64315409,46.17252071],[12.64333801,46.1726371],[12.64363467,46.1728558],[12.64382898,46.17294107],[12.64394586,46.17294348],[12.64408993,46.17294024],[12.64420202,46.17284247],[12.64435128,46.17272054],[12.64445883,46.17272897],[12.64456652,46.17273749],[12.64462862,46.17275749],[12.64464448,46.17280786],[12.64464262,46.17285156],[12.64462223,46.17290739],[12.6446029,46.17293831],[12.64450001,46.17302997],[12.64448909,46.17307348],[12.64448696,46.17312348],[12.64451081,46.17319903],[12.64454519,46.17323727],[12.64457025,46.17328152],[12.64466621,46.17335226],[12.64480681,46.17343022],[12.64495782,46.17347707],[12.64510055,46.17350504],[12.64551811,46.17363244],[12.64581731,46.17378873],[12.64595139,46.17381021],[12.64627499,46.17381687],[12.64641146,46.17378216],[12.64658551,46.17371077],[12.64666668,46.17370614],[12.64681102,46.1736966],[12.64695482,46.17369957],[12.64714341,46.17370975],[12.6474041,46.17371512],[12.64757442,46.17373113],[12.64783325,46.1737802],[12.6478763,46.17382483],[12.64792841,46.17386973],[12.64799878,46.17390871],[12.64812247,46.17396121],[12.64823723,46.17401361],[12.64835145,46.17407851],[12.64846594,46.17413711],[12.6485635,46.17417044],[12.64874169,46.17421164],[12.64892935,46.17424052],[12.64905396,46.17427431],[12.64919564,46.17432727],[12.64930987,46.17439217],[12.64938917,46.17443124],[12.64945822,46.17450133],[12.64954406,46.17459688],[12.64964083,46.17464891],[12.64981142,46.17465863],[12.64991951,46.17465464],[12.65001868,46.17465038],[12.65022552,46.17465463],[12.65037759,46.17467657],[12.65051874,46.17474202],[12.65063191,46.17483183],[12.65070908,46.17492099],[12.6509222,46.17498792],[12.65108294,46.17501624],[12.65131671,46.17502105],[12.65142454,46.17502326],[12.65165097,46.17499039],[12.65182224,46.1749814],[12.65212798,46.17498768],[12.6524156,46.17499359],[12.65257966,46.17494692],[12.65276573,46.17501329],[12.65296939,46.17509254],[12.65313561,46.17520224],[12.65317654,46.17529686],[12.65327039,46.17541759],[12.65341167,46.17548304],[12.65355283,46.17554849],[12.65374142,46.17555857],[12.65399651,46.17548254],[12.65421574,46.17540577],[12.65446283,46.17531076],[12.65469992,46.17523436],[12.65495567,46.17514583],[12.65521195,46.17504471],[12.65549515,46.17494423],[12.65572357,46.17486143],[12.65592295,46.17482799],[12.65627679,46.17476019],[12.656298351352559,46.174734009777055],[12.656352221122413,46.174628893232835],[12.65635058,46.1745053],[12.65641437,46.1742753],[12.65645137,46.17403846],[12.65645721,46.17390097],[12.65648236,46.17373265],[12.656499757596047,46.17364325974641],[12.6564908,46.173553],[12.6565668,46.1734305],[12.656644705889985,46.173383890240245],[12.65666007,46.17336117],[12.6566552,46.1733576]]]}},{"type":"Feature","id":22,"properties":{"class":"p4","label":"Molto elevata P4"},"geometry":{"type":"MultiPolygon","coordinates":[[[[12.656664184868097,46.17337223630124],[12.656776895237927,46.17330480361725],[12.65675216,46.17331302],[12.65666007,46.17336117],[12.656664184868097,46.17337223630124]]],[[[12.65875263,46.1736135],[12.6583451,46.17360047],[12.65829747,46.17360246],[12.6582697,46.17360351],[12.65820048,46.17360146],[12.65809167,46.17360409],[12.65805937,46.17360505],[12.658033189595182,46.173603212143625],[12.6583127,46.1736876],[12.65883295378833,46.17361514620632],[12.65875263,46.1736135]]]]}}]}
